C/2019 F2 (ATLAS),e,19.3119,175.3804,11.6311,16.57390,0.0146072,0.86463948,25.9808,07/21.0/2024,2000,g 12.0,4.0
# From MPEC 2024-E01
C/2019 G2 (PANSTARRS),e,159.2311,208.1910,82.6795,404.3606,0.0001212,0.99431222,0.0000,12/07.2622/2019,2000,g 15.0,4.0
# From MPEC 2022-VC5
A/2019 G3,e,156.8038,49.9136,161.8136,17.15500,0.0138713,0.83445995,28.5132,07/21.0/2024,2000,g 17.1,2.0
# From MPC114607
P/2019 GG21 (PANSTARRS),e,6.0863,340.5615,208.5873,7.468269,0.0482919,0.47171612,91.7193,07/21.0/2024,2000,g 12.0,4.0
# From MPEC 2022-M21
C/2019 H1 (NEOWISE),e,104.3780,269.3042,19.2861,236.6821,0.0002707,0.99221779,0.0000,04/27.5573/2019,2000,g 15.5,4.0
# From MPEC 2023-A50
C/2019 J1 (Lemmon),e,24.5277,98.2155,167.6486,67.19611,0.0017893,0.96301793,3.4578,07/21.0/2024,2000,g 12.0,4.0
# From MPEC 2021-R75
C/2019 J2 (Palomar),e,105.2471,25.5267,98.6145,160.8007,0.0004834,0.98931526,0.0000,07/20.7589/2019,2000,g 13.0,4.0
# From MPC117071
C/2019 J3 (ATLAS),h,08/02.3937/2019,131.3072,270.6450,16.5471,1.000272,2.365194,2000,13.5,4.0
# From MPEC 2022-M21
C/2019 JU6 (ATLAS),h,06/02.6650/2019,148.3212,21.7422,94.8906,1.000032,2.037120,2000,14.5,4.0
# From MPEC 2022-O08
C/2019 K1 (ATLAS),e,87.0167,73.3099,265.7527,4188,0.0000036,0.99951823,0.0000,02/11.8255/2020,2000,g 10.0,4.0
# From MPC119997
C/2019 K4 (Ye),e,105.2950,180.2173,139.9783,1540,0.0000163,0.99852321,0.0000,06/15.2812/2019,2000,g 12.5,4.0
# From MPEC 2021-P47
C/2019 K5 (Young),e,15.3068,177.2195,175.1511,169.7151,0.0004458,0.98792143,0.0000,06/22.2966/2019,2000,g 13.0,4.0
# From MPEC 2021-P47
C/2019 K6 (PANSTARRS),e,132.3806,42.9992,187.4956,1116,0.0000264,0.99648895,0.0000,05/19.3249/2020,2000,g 11.5,4.0
# From MPEC 2024-GJ3
C/2019 K7 (Smith),h,06/17.5474/2020,103.5018,308.0097,27.3968,1.000830,4.477098,2000,6.0,4.0
# From MPEC 2021-R75
C/2019 K8 (ATLAS),e,93.0812,291.0081,85.3619,2003,0.0000110,0.99840467,0.0000,07/21.0874/2019,2000,g 11.5,4.0
# From MPEC 2023-A50
C/2019 L1 (PANSTARRS),e,9.9743,254.4276,50.0494,9.829235,0.0319834,0.70458912,57.8293,07/21.0/2024,2000,g 13.5,4.0
# From MPC115886
C/2019 L2 (NEOWISE),e,152.1871,12.5628,18.8648,25.12534,0.0078259,0.93533340,15.1516,07/21.0/2024,2000,g 16.0,4.0
# From MPEC 2024-GJ3
P/2019 LD2 (ATLAS),e,11.6011,179.3266,117.7028,5.191631,0.0833198,0.12789063,134.9972,07/21.0/2024,2000,g  8.5,4.0
# From MPEC 2024-NE4
C/2019 L3 (ATLAS),h,01/09.9047/2022,48.3444,290.7402,171.6811,1.002690,3.555698,2000,4.5,4.0
# From MPEC 2020-K19
P/2019 LM4 (Palomar),e,36.4182,72.8429,68.2587,5.703735,0.0723544,0.58556598,134.5302,07/21.0/2024,2000,g  9.5,4.0
# From MPC118095
C/2019 LB7 (Kleyna),e,164.2868,3.9368,336.6988,34.90283,0.0047798,0.92849510,9.2886,07/21.0/2024,2000,g 17.0,4.0
# From MPEC 2024-DC6
P/2019 M2 (ATLAS),e,12.2661,307.6087,332.5225,3.030217,0.1868502,0.64730064,347.0753,07/21.0/2024,2000,g 21.2,4.0
# From MPC118095
C/2019 M3 (ATLAS),e,99.5881,154.9918,87.9256,4739,0.0000030,0.99948834,0.0000,12/31.3229/2018,2000,g 12.2,4.0
# From MPEC 2023-JA2
C/2019 M4 (TESS),h,09/11.1292/2019,65.6789,52.6490,260.3655,1.001861,9.190680,2000,5.0,4.0
# From MPEC 2023-C45
C/2019 N1 (ATLAS),e,82.4652,13.5497,193.3664,1092,0.0000273,0.99843930,0.0000,11/30.7970/2020,2000,g  7.5,4.0
# From MPEC 2023-CD8
A/2019 N2,e,89.3401,276.1971,347.1375,1344,0.0000200,0.99855304,0.0000,08/22.6075/2019,2000,g 12.5,2.0
# From MPEC 2022-A21
C/2019 NJ3 (Lemmon),h,10/22.6922/2020,99.3750,142.4865,246.8901,1.001861,4.363221,2000,9.0,4.0
# From MPEC 2024-NE4
C/2019 O2 (PANSTARRS),e,93.3114,48.2582,129.6000,58.46803,0.0022046,0.83440327,1.0396,07/21.0/2024,2000,g  5.0,4.0
# From MPEC 2024-N80
C/2019 O3 (Palomar),h,03/09.3677/2021,89.8072,300.4572,60.1264,1.003887,8.821331,2000,3.5,4.0
# From MPEC 2021-P47
A/2019 O4,e,115.0539,354.9287,61.8606,33.26555,0.0051370,0.89041765,8.3320,07/21.0/2024,2000,g 15.5,2.0
# From MPEC 2024-EF7
C/2019 Q1 (Lemmon),h,07/21.5744/2020,155.7303,42.4578,56.2502,1.001882,5.005006,2000,8.5,4.0
# From MPC117072
A/2019 Q2,e,159.0053,188.0608,176.4719,58.51547,0.0022019,0.97840809,0.0000,07/22.7864/2019,2000,g 18.0,2.0
# From MPC117072
P/2019 S2 (PANSTARRS),e,10.4642,93.1835,217.0541,4.745742,0.0953340,0.20490876,188.6535,07/21.0/2024,2000,g 13.5,4.0
# From MPEC 2022-CN4
P/2019 S3 (PANSTARRS),e,8.6936,150.1560,213.0765,3.415067,0.1561727,0.47093637,279.4014,07/21.0/2024,2000,g 18.3,4.0
# From MPEC 2021-S45
C/2019 S4 (Lemmon),e,92.1079,63.1584,71.3730,242.5253,0.0002610,0.98581107,0.0000,04/08.6786/2020,2000,g 11.0,4.0
# From MPEC 2023-N01
A/2019 T1,e,120.8533,6.9417,91.0344,38.83491,0.0040726,0.88983905,5.2250,07/21.0/2024,2000,g 13.0,2.0
# From MPEC 2023-R20
C/2019 T2 (Lemmon),e,111.4229,155.6563,239.4163,4813,0.0000030,0.99945050,0.0000,04/22.6732/2021,2000,g  9.0,4.0
# From MPEC 2023-UR6
C/2019 T3 (ATLAS),e,121.8503,139.5345,112.4685,3485,0.0000048,0.99829197,0.0000,03/04.3659/2021,2000,g  6.8,4.0
# From MPEC 2024-NE4
C/2019 T4 (ATLAS),e,53.6280,199.9287,351.1227,886.6533,0.0000373,0.99521837,0.0000,06/08.6836/2022,2000,g  5.0,4.0
# From MPEC 2021-P47
P/2019 T5 (ATLAS),e,33.4982,247.6114,189.5935,8.002878,0.0435346,0.80982418,78.9788,07/21.0/2024,2000,g 15.0,4.0
# From MPEC 2021-P47
P/2019 T6 (PANSTARRS),e,18.6999,71.2446,329.0283,5.440662,0.0776652,0.62291190,133.2683,07/21.0/2024,2000,g 15.5,4.0
# From MPC118096
P/2019 U4 (PANSTARRS),e,11.6973,200.0159,181.0544,3.519556,0.1492699,0.47592257,263.5140,07/21.0/2024,2000,g 19.0,4.0
# From MPEC 2024-LE0
C/2019 U5 (PANSTARRS),h,03/29.6590/2023,113.5136,2.6288,181.4644,1.000758,3.623849,2000,4.5,4.0
# From MPEC 2022-H04
C/2019 U6 (Lemmon),e,60.9660,235.7887,329.4797,314.5830,0.0001766,0.99710721,0.0000,06/18.2580/2020,2000,g 10.0,4.0
# From MPEC 2022-N37
C/2019 V1 (Borisov),e,61.9414,83.1494,51.1741,1943,0.0000115,0.99840833,0.0000,07/16.9534/2020,2000,g 11.0,4.0
# From MPEC 2022-L66
P/2019 V2 (Groeller),e,11.8071,189.1678,335.6360,7.495289,0.0480310,0.33144807,65.9594,07/21.0/2024,2000,g 10.0,4.0
# From MPEC 2023-A50
P/2019 W1 (PANSTARRS),e,23.4730,35.3741,18.8182,4.548708,0.1015949,0.26730618,192.8390,07/21.0/2024,2000,g 12.9,4.0
# From MPEC 2021-P47
P/2019 X1 (Pruyne),e,10.2494,43.6798,36.8848,6.176718,0.0642048,0.30396618,117.1298,07/21.0/2024,2000,g 10.4,4.0
# From MPEC 2020-C98
P/2019 X2 (Pan-STARRS),e,15.8954,250.8408,213.4643,3.635462,0.1421886,0.50023982,239.5169,07/21.0/2024,2000,g 18.0,4.0
# From MPC119999
C/2019 Y1 (ATLAS),e,73.3580,31.5285,57.9072,87.53398,0.0012035,0.99054844,0.0000,03/16.6778/2020,2000,g 13.7,4.0
# From MPEC 2020-K19
P/2019 Y2 (Fuls),e,4.8764,80.2441,93.4020,3.486995,0.1513655,0.37672121,248.7339,07/21.0/2024,2000,g  9.0,4.0
# From MPEC 2020-C98
P/2019 Y3 (Catalina),e,24.5987,139.2971,2.5723,3.015026,0.1882640,0.69115075,317.6071,07/21.0/2024,2000,g 18.5,4.0
# From MPEC 2024-A43
C/2019 Y4 (ATLAS),e,45.0480,120.7411,177.4359,347.9558,0.0001519,0.99926249,0.0000,05/30.3647/2020,2000,g 11.8,6.0
# From MPEC 2020-L06
C/2019 Y4-A (ATLAS),h,05/30.4034/2020,45.4865,121.1061,177.2693,1.001400,0.254781,2000,11.6,6.0
# From MPEC 2023-J29
C/2019 Y4-B (ATLAS),e,45.1775,120.8484,177.3801,42868,0.0000001,0.99999403,0.0000,05/30.3746/2020,2000,g 12.1,6.0
# From MPEC 2020-L06
C/2019 Y4-C (ATLAS),h,05/30.3555/2020,45.2695,120.8331,177.3024,1.002127,0.255856,2000,12.7,6.0
# From MPEC 2020-L06
C/2019 Y4-D (ATLAS),e,45.3188,121.2001,177.4424,67.96782,0.0017589,0.99624585,0.0000,05/30.4719/2020,2000,g 12.5,6.0
# From MPEC 2023-A50
C/2019 Y5 (PANSTARRS),e,82.7618,51.7509,303.6205,710.1322,0.0000521,0.99306125,0.0000,08/17.2601/2019,2000,g 11.0,4.0
# From MPEC 2023-A50
A/2020 A1,e,149.0328,119.1217,302.4205,25.51151,0.0076489,0.93462946,12.9551,07/21.0/2024,2000,g 18.0,2.0
# From MPEC 2022-YN2
C/2020 A2 (Iwamoto),e,120.5476,286.2286,68.0282,1122,0.0000262,0.99913202,0.0000,01/08.0009/2020,2000,g 13.5,4.0
# From MPEC 2023-A50
C/2020 A3 (ATLAS),e,146.6391,120.8033,268.2869,38848,0.0000001,0.99985187,0.0000,06/28.1373/2019,2000,g  8.0,4.0
# From MPEC 2022-P91
P/2020 A4 (PANSTARRS-Lemmon),e,24.9954,312.3263,144.8216,8.197800,0.0419912,0.65440541,71.4338,07/21.0/2024,2000,g 15.0,4.0
# From MPEC 2020-N08
A/2020 B1,e,18.5290,309.8746,154.7830,51.74144,0.0026482,0.96640132,4.4169,07/21.0/2024,2000,g 21.0,2.0
# From MPEC 2020-HN5
C/2020 B2 (Lemmon),e,55.7523,354.2478,143.5950,67.68728,0.0017699,0.95926219,2.8975,07/21.0/2024,2000,g 10.0,4.0
# From MPEC 2022-N37
C/2020 B3 (Rankin),e,20.7077,185.8074,324.8852,962.2387,0.0000330,0.99653905,0.0000,10/20.0046/2019,2000,g 13.0,4.0
# From MPEC 2023-KD6
P/2020 B4 (Sheppard),e,11.6063,185.9695,341.9860,7.969114,0.0438116,0.19234438,42.7519,07/21.0/2024,2000,g 10.5,4.0
# From MPEC 2024-LE0
C/2020 F2 (ATLAS),h,07/13.5594/2022,163.5895,250.3036,48.2770,1.004170,8.814628,2000,4.5,4.0
# From MPEC 2021-O56
C/2020 F3 (NEOWISE),e,129.1538,61.0972,37.3882,385.4848,0.0001302,0.99923546,0.0000,07/04.3334/2020,2000,g  7.5,5.2
# From MPEC 2024-BE0
C/2020 F5 (MASTER),e,52.2143,350.5109,310.6671,168.5889,0.0004503,0.97433536,0.0000,03/16.7969/2021,2000,g  6.5,3.2
# From MPEC 2020-L06
C/2020 F6 (PANSTARRS),e,174.5833,207.8821,344.4292,368.0589,0.0001396,0.99049060,0.0000,04/11.2300/2020,2000,g 14.5,2.8
# From MPEC 2024-A43
C/2020 F7 (Lemmon),e,93.9636,321.8435,227.9546,554.1683,0.0000756,0.99037650,0.0000,11/13.6321/2021,2000,g  7.0,4.0
# From MPEC 2023-J29
C/2020 F8 (SWAN),h,05/26.6136/2020,110.5640,259.8115,68.0765,1.000117,0.430662,2000,10.0,4.0
# From MPEC 2020-L06
P/2020 G1 (Pimentel),e,18.5118,240.1114,207.6210,3.607479,0.1438462,0.86072384,228.0693,07/21.0/2024,2000,g 17.0,4.0
# From MPEC 2022-YB4
C/2020 H2 (Pruyne),e,124.8176,277.6712,26.6163,183.1367,0.0003977,0.99547186,0.0000,04/27.5618/2020,2000,g 14.0,3.2
# From MPEC 2020-HM1
C/2020 H3 (Wierzchos),p,06/05.7162/2020,62.5292,30.4456,2.300288,270.6227,2000,13.5,4.0
# From MPEC 2020-L06
C/2020 H4 (Leonard),e,84.4956,307.5503,117.5295,47.81698,0.0029808,0.98065335,0.0000,08/29.5355/2020,2000,g 15.0,3.2
# From MPEC 2024-JU4
